NORAD_CAT_ID,OBJECT_NAME,OBJECT_TYPE,EPOCH,MEAN_MOTION,ECCENTRICITY,INCLINATION,RA_OF_ASC_NODE,ARG_OF_PERICENTER,MEAN_ANOMALY,BSTAR,MEAN_MOTION_DOT,MEAN_MOTION_DDOT,TLE_LINE0,TLE_LINE1,TLE_LINE2,SEMIMAJOR_AXIS,PERIOD,APOGEE,PERIGEE,DECAYED
52678.0,STARLINK-4074,PAYLOAD,2022-12-31 01:37:14,15.08822139,0.0002573999999999,53.2192,332.3096,39.7007,320.4173,8.314200000000001e-05,1.034e-05,0.0,0 STARLINK-4074,1 52678U 22053Y   22365.06752328  .00001034  00000-0  83142-4 0  9991,2 52678  53.2192 332.3096 0002574  39.7007 320.4173 15.08822139 34929,6917.935,95.439,541.581,538.019,0.0
52678.0,STARLINK-4074,PAYLOAD,2022-12-31 04:47:59,15.08829266,0.0002516,53.2193,331.7167,36.326,323.7903,0.00013616,1.879e-05,0.0,0 STARLINK-4074,1 52678U 22053Y   22365.19999831  .00001879  00000-0  13616-3 0  9992,2 52678  53.2193 331.7167 0002516  36.3260 323.7903 15.08829266 34949,6917.913000000001,95.438,541.519,538.038,0.0
52678.0,STARLINK-4074,PAYLOAD,2022-12-31 14:20:19,15.08823216,0.0002624,53.2193,329.9339,37.6766,322.4409,9.3246e-05,1.195e-05,0.0,0 STARLINK-4074,1 52678U 22053Y   22365.59744764  .00001195  00000-0  93246-4 0  9998,2 52678  53.2193 329.9339 0002624  37.6766 322.4409 15.08823216 35435,6917.932,95.439,541.612,537.981,0.0
52678.0,STARLINK-4074,PAYLOAD,2023-01-01 07:49:33,15.08835543,0.0002633,53.2191,326.6633,43.8483,316.2718,5.2702e-05,5.5e-06,0.0,0 STARLINK-4074,1 52678U 22053Y   23001.32608777  .00000550  00000-0  52702-4 0  9996,2 52678  53.2191 326.6633 0002633  43.8483 316.2718 15.08835543 35114,6917.894,95.438,541.58,537.938,0.0
52678.0,STARLINK-4074,PAYLOAD,2023-01-01 14:11:06,15.08836339,0.0002622,53.2186,325.474,44.5515,315.5688,-3.5733e-06,-3.45e-06,0.0,0 STARLINK-4074,1 52678U 22053Y   23001.59104992 -.00000345  00000-0 -35733-5 0  9995,2 52678  53.2186 325.4740 0002622  44.5515 315.5688 15.08836339 35589,6917.892,95.438,541.57,537.943,0.0
52678.0,STARLINK-4074,PAYLOAD,2023-01-02 04:29:34,15.08849778,0.0002494,53.2182,322.7972,45.8744,314.2453,0.00011645,1.566e-05,0.0,0 STARLINK-4074,1 52678U 22053Y   23002.18720097  .00001566  00000-0  11645-3 0  9999,2 52678  53.2182 322.7972 0002494  45.8744 314.2453 15.08849778 35247,6917.851,95.437,541.441,537.99,0.0
52678.0,STARLINK-4074,PAYLOAD,2023-01-02 14:01:54,15.08832156,0.0002338,53.2196,321.0156,53.5162,306.6046,5.1713e-05,5.35e-06,0.0,0 STARLINK-4074,1 52678U 22053Y   23002.58465332  .00000535  00000-0  51713-4 0  9997,2 52678  53.2196 321.0156 0002338  53.5162 306.6046 15.08832156 35734,6917.904,95.438,541.387,538.1519999999998,0.0
52678.0,STARLINK-4074,PAYLOAD,2023-01-03 13:52:40,15.0884059,0.0002396,53.2189,316.5523,53.5058,306.6155,7.8975e-05,9.69e-06,0.0,0 STARLINK-4074,1 52678U 22053Y   23003.57825144  .00000969  00000-0  78975-4 0  9998,2 52678  53.2189 316.5523 0002396  53.5058 306.6155 15.08840590 35452,6917.879,95.438,541.401,538.086,0.0
52678.0,STARLINK-4074,PAYLOAD,2023-01-04 13:43:27,15.08852767,0.0002334999999999,53.2191,312.0945,61.4394,298.6833,0.00013041,1.788e-05,0.0,0 STARLINK-4074,1 52678U 22053Y   23004.57184187  .00001788  00000-0  13041-3 0  9996,2 52678  53.2191 312.0945 0002335  61.4394 298.6833 15.08852767 36035,6917.840999999999,95.437,541.322,538.091,0.0
52678.0,STARLINK-4074,PAYLOAD,2023-01-04 20:04:59,15.08849896,0.0002327,53.2181,310.9048,61.6382,298.4845,0.00026208,3.886e-05,0.0,0 STARLINK-4074,1 52678U 22053Y   23004.83680381  .00003886  00000-0  26208-3 0  9992,2 52678  53.2181 310.9048 0002327  61.6382 298.4845 15.08849896 35641,6917.85,95.437,541.325,538.105,0.0
52678.0,STARLINK-4074,PAYLOAD,2023-01-05 02:26:31,15.08860177,0.0002266,53.2178,309.7148,64.1767,295.9459,0.00037336,5.662e-05,0.0,0 STARLINK-4074,1 52678U 22053Y   23005.10175742  .00005662  00000-0  37336-3 0  9991,2 52678  53.2178 309.7148 0002266  64.1767 295.9459 15.08860177 35683,6917.819,95.436,541.251,538.116,0.0
52678.0,STARLINK-4074,PAYLOAD,2023-01-05 13:34:14,15.088474800000002,0.0002334999999999,53.2176,307.6334,65.9776,294.1461,0.00013677,1.89e-05,0.0,0 STARLINK-4074,1 52678U 22053Y   23005.56544209  .00001890  00000-0  13677-3 0  9990,2 52678  53.2176 307.6334 0002335  65.9776 294.1461 15.08847480 36183,6917.858,95.437,541.3380000000002,538.107,0.0
52678.0,STARLINK-4074,PAYLOAD,2023-01-06 15:00:25,15.08839297,0.0002025,53.2173,302.8742,79.9496,280.1724,0.00049109,7.536e-05,0.0,0 STARLINK-4074,1 52678U 22053Y   23006.62529134  .00007536  00000-0  49109-3 0  9990,2 52678  53.2173 302.8742 0002025  79.9496 280.1724 15.08839297 35914,6917.883000000002,95.438,541.148,538.347,0.0
52678.0,STARLINK-4074,PAYLOAD,2023-01-06 21:21:57,15.08845473,0.0002013,53.2173,301.6849,80.97,279.152,0.001131,0.0001776,0.0,0 STARLINK-4074,1 52678U 22053Y   23006.89025394  .00017760  00000-0  11310-2 0  9990,2 52678  53.2173 301.6849 0002013  80.9700 279.1520 15.08845473 36383,6917.864000000001,95.437,541.121,538.336,0.0
52678.0,STARLINK-4074,PAYLOAD,2023-01-06 22:57:21,15.08849708,0.0002011,53.2173,301.3875,81.1406,278.9813,0.0012036,0.00018924,0.0,0 STARLINK-4074,1 52678U 22053Y   23006.95649333  .00018924  00000-0  12036-2 0  9991,2 52678  53.2173 301.3875 0002011  81.1406 278.9813 15.08849708 35963,6917.851,95.437,541.107,538.325,0.0
52678.0,STARLINK-4074,PAYLOAD,2023-01-07 19:37:21,15.08842174,0.0002007,53.2174,297.5223,86.8048,273.3174,0.00015238,2.138e-05,0.0,0 STARLINK-4074,1 52678U 22053Y   23007.81761066  .00002138  00000-0  15238-3 0  9993,2 52678  53.2174 297.5223 0002007  86.8048 273.3174 15.08842174 36090,6917.874,95.437,541.127,538.35,0.0
52678.0,STARLINK-4074,PAYLOAD,2023-01-07 21:12:44,15.08836401,0.0002009,53.2175,297.2253,91.6115,268.5107,0.00081745,0.00012744,0.0,0 STARLINK-4074,1 52678U 22053Y   23007.88385217  .00012744  00000-0  81745-3 0  9990,2 52678  53.2175 297.2253 0002009  91.6115 268.5107 15.08836401 36539,6917.891,95.438,541.146,538.367,0.0
52678.0,STARLINK-4074,PAYLOAD,2023-01-08 11:31:13,15.08837136,0.0002287,53.2174,294.5491,94.7965,265.3288,0.00076477,0.00011903,0.0,0 STARLINK-4074,1 52678U 22053Y   23008.48001450  .00011903  00000-0  76477-3 0  9993,2 52678  53.2174 294.5491 0002287  94.7965 265.3288 15.08837136 36628,6917.889,95.438,541.336,538.172,0.0
52678.0,STARLINK-4074,PAYLOAD,2023-01-08 19:28:09,15.08842946,0.0002479,53.2173,293.0625,93.0129,267.1147,0.00065855,0.00010209,0.0,0 STARLINK-4074,1 52678U 22053Y   23008.81121585  .00010209  00000-0  65855-3 0  9998,2 52678  53.2173 293.0625 0002479  93.0129 267.1147 15.08842946 36244,6917.871,95.437,541.451,538.021,0.0
52678.0,STARLINK-4074,PAYLOAD,2023-01-09 11:22:00,15.08831419,0.0002431,53.2169,290.0885,85.5489,274.5781,6.3151e-06,-1.88e-06,0.0,0 STARLINK-4074,1 52678U 22053Y   23009.47361978 -.00000188  00000-0  63151-5 0  9998,2 52678  53.2169 290.0885 0002431  85.5489 274.5781 15.08831419 36347,6917.906999999998,95.438,541.453,538.09,0.0
52678.0,STARLINK-4074,PAYLOAD,2023-01-10 11:12:47,15.08841208,0.0002597,53.2193,285.626,79.03,281.0984,0.00017088,2.432e-05,0.0,0 STARLINK-4074,1 52678U 22053Y   23010.46722115  .00002432  00000-0  17088-3 0  9992,2 52678  53.2193 285.6260 0002597  79.0300 281.0984 15.08841208 36923,6917.877,95.437,541.538,537.945,0.0
52678.0,STARLINK-4074,PAYLOAD,2023-01-11 12:38:57,15.08846121,0.0001813,53.2157,280.8719,92.4006,267.7193,0.00011175,1.491e-05,0.0,0 STARLINK-4074,1 52678U 22053Y   23011.52705325  .00001491  00000-0  11175-3 0  9999,2 52678  53.2157 280.8719 0001813  92.4006 267.7193 15.08846121 37081,6917.861999999999,95.437,540.981,538.472,0.0
52678.0,STARLINK-4074,PAYLOAD,2023-01-11 20:35:53,15.08842134,0.0001837,53.2156,279.3847,92.0863,268.034,0.00011431,1.532e-05,0.0,0 STARLINK-4074,1 52678U 22053Y   23011.85825692  .00001532  00000-0  11431-3 0  9996,2 52678  53.2156 279.3847 0001837  92.0863 268.0340 15.08842134 37132,6917.874,95.437,541.01,538.4680000000002,0.0
52678.0,STARLINK-4074,PAYLOAD,2023-01-12 17:15:54,15.08830485,0.0001616,53.2154,275.5186,85.2307,274.8869,-0.00015377,-2.734e-05,0.0,0 STARLINK-4074,1 52678U 22053Y   23012.71937942 -.00002734  00000-0 -15377-3 0  9994,2 52678  53.2154 275.5186 0001616  85.2307 274.8869 15.08830485 36839,6917.9090000000015,95.438,540.8919999999998,538.6569999999998,0.0
52678.0,STARLINK-4074,PAYLOAD,2023-01-12 22:02:03,15.08834531,0.0001524,53.2156,274.6263,87.4075,272.7091,-4.108e-05,-9.42e-06,0.0,0 STARLINK-4074,1 52678U 22053Y   23012.91809913 -.00000942  00000-0 -41080-4 0  9992,2 52678  53.2156 274.6263 0001524  87.4075 272.7091 15.08834531 37292,6917.897,95.438,540.816,538.7080000000002,0.0
52678.0,STARLINK-4074,PAYLOAD,2023-01-13 10:45:08,15.08838952,0.0001439,53.2151,272.2467,106.7955,253.3195,3.6926e-05,3e-06,0.0,0 STARLINK-4074,1 52678U 22053Y   23013.44801879  .00000300  00000-0  36926-4 0  9993,2 52678  53.2151 272.2467 0001439 106.7955 253.3195 15.08838952 36946,6917.884,95.438,540.744,538.753,0.0
52678.0,STARLINK-4074,PAYLOAD,2023-01-13 20:17:27,15.08842019,0.0001501999999999,53.215,270.4629,89.8278,270.2886,0.00034037,5.133e-05,0.0,0 STARLINK-4074,1 52678U 22053Y   23013.84546147  .00005133  00000-0  34037-3 0  9990,2 52678  53.2150 270.4629 0001502  89.8278 270.2886 15.08842019 37434,6917.874,95.437,540.778,538.7,0.0
52678.0,STARLINK-4074,PAYLOAD,2023-01-13 23:28:14,15.08844934,0.0001465999999999,53.2154,269.8684,85.2599,274.856,0.00040295,6.132e-05,0.0,0 STARLINK-4074,1 52678U 22053Y   23013.97794153  .00006132  00000-0  40295-3 0  9999,2 52678  53.2154 269.8684 0001466  85.2599 274.8560 15.08844934 37028,6917.865,95.437,540.744,538.716,0.0
52678.0,STARLINK-4074,PAYLOAD,2023-01-14 23:19:00,15.08853015,0.0001491,53.2153,265.4075,91.2755,268.8408,0.00046555,7.132e-05,0.0,0 STARLINK-4074,1 52678U 22053Y   23014.97153895  .00007132  00000-0  46555-3 0  9998,2 52678  53.2153 265.4075 0001491  91.2755 268.8408 15.08853015 37172,6917.840999999999,95.437,540.737,538.674,0.0
